0 COSMOS 2249
1 22650U 93030E   13283.82682818  .00000011  00000-0  12137-5 0  6910
2 22650 082.5888 040.7392 0007998 016.1815 098.0466 12.63078350941389
0 COSMOS 2249
1 22650U 93030E   13286.51007071  .00000005  00000-0 -29727-4 0  6928
2 22650 082.5894 039.0269 0007879 010.1956 058.8664 12.63078183941724
0 COSMOS 2249
1 22650U 93030E   13288.81709615  .00000038  00000-0  15134-3 0  6938
2 22650 082.5896 037.5547 0007804 004.4346 109.6247 12.63077982942016
0 COSMOS 2249
1 22650U 93030E   13291.42141859  .00000050  00000-0  21894-3 0  6944
2 22650 082.5894 035.8931 0007697 358.2638 071.9509 12.63078101942348
0 COSMOS 2249
1 22650U 93030E   13293.80810319  .00000034  00000-0  12975-3 0  6955
2 22650 082.5893 034.3701 0007595 352.7966 124.4497 12.63078318942649
0 COSMOS 2249
1 22650U 93030E   13296.17100203  .00000011  00000-0  37200-5 0  6968
2 22650 082.5893 032.8622 0007492 347.0163 069.1614 12.63078580942946
